[{"OBJECT_NAME":"CORVUS BC2","OBJECT_ID":"2017-042X","EPOCH":"2026-03-09T22:14:39.055488","MEAN_MOTION":15.05610206,"ECCENTRICITY":0.00145863,"INCLINATION":97.3955,"RA_OF_ASC_NODE":234.2405,"ARG_OF_PERICENTER":92.385,"MEAN_ANOMALY":267.9047,"EPHEMERIS_TYPE":0,"CLASSIFICATION_TYPE":"U","NORAD_CAT_ID":42846,"ELEMENT_SET_NO":999,"REV_AT_EPOCH":47212,"BSTAR":0.00034626467,"MEAN_MOTION_DOT":4.947e-5,"MEAN_MOTION_DDOT":0},{"OBJECT_NAME":"STARLINK-5746","OBJECT_ID":"2023-083BC","EPOCH":"2026-03-09T23:00:04.749984","MEAN_MOTION":15.0380119,"ECCENTRICITY":0.00024094,"INCLINATION":43.0019,"RA_OF_ASC_NODE":67.0685,"ARG_OF_PERICENTER":315.3692,"MEAN_ANOMALY":44.6957,"EPHEMERIS_TYPE":0,"CLASSIFICATION_TYPE":"U","NORAD_CAT_ID":56926,"ELEMENT_SET_NO":999,"REV_AT_EPOCH":15186,"BSTAR":0.0075848224,"MEAN_MOTION_DOT":0.00107397,"MEAN_MOTION_DDOT":0}]
